{
  "norad_id": 60384,
  "name": "QIANFAN-6",
  "history": [
    {
      "epoch": "2026-03-28T21:47:47.476032Z",
      "apogee_km": 1077.0554490366612,
      "perigee_km": 1060.0799410138807,
      "latitude_deg": -5.844295883589443e-05,
      "longitude_deg": 134.76439490955883,
      "height_km": 1074.9415894063889,
      "semi_major_axis_km": 7446.704695025271,
      "eccentricity": 0.0011398,
      "inclination_deg": 88.9689,
      "raan_deg": 288.0341,
      "arg_perigee_deg": 246.293,
      "mean_anomaly_deg": 113.7025,
      "mean_motion_rev_day": 13.5100378
    },
    {
      "epoch": "2026-03-29T03:07:44.630688Z",
      "apogee_km": 1077.0611231294351,
      "perigee_km": 1060.0737010246048,
      "latitude_deg": 1.1365727394966157e-05,
      "longitude_deg": 54.53415203243993,
      "height_km": 1075.0473627624008,
      "semi_major_axis_km": 7446.70441207702,
      "eccentricity": 0.0011406,
      "inclination_deg": 88.9689,
      "raan_deg": 288.011,
      "arg_perigee_deg": 245.5272,
      "mean_anomaly_deg": 114.469,
      "mean_motion_rev_day": 13.51003857
    }
  ]
}